{"type": "FeatureCollection", "features": [ {"type": "Feature", "properties": {"norad_id": 29906, "name": "FENGYUN 1C DEB", "group": "fengyun-1c-debris", "lat": 24.65481962130801, "lon": 75.56393428496932, "alt_km": 751.2294684630006, "timestamp": "2025-12-02T13:52:17.534340+00:00", "meta": {"OBJECT_NAME": "FENGYUN 1C DEB", "OBJECT_ID": "1999-025HC", "EPOCH": "2025-12-02T05:28:16.356576", "MEAN_MOTION": 14.49299122, "ECCENTRICITY": 0.00376603, "INCLINATION": 98.7061, "RA_OF_ASC_NODE": 79.2359, "ARG_OF_PERICENTER": 180.0567, "MEAN_ANOMALY": 180.0627, "EPHEMERIS_TYPE": 0, "CLASSIFICATION_TYPE": "U", "NORAD_CAT_ID": 29906, "ELEMENT_SET_NO": 999, "REV_AT_EPOCH": 98005, "BSTAR": 0.0032686244, "MEAN_MOTION_DOT": 0.00012559, "MEAN_MOTION_DDOT": 0}, "tle": {"line1": "1 29906U 99025HC  25336.22796709  .00012559  00000+0  32686-2 0  9990", "line2": "2 29906  98.7061  79.2359 0037660 180.0567 180.0627 14.49299122980052"}}, "geometry": {"type": "Point", "coordinates": [75.56393428496932, 24.65481962130801]}}, {"type": "Feature", "properties": {"norad_id": 29907, "name": "FENGYUN 1C DEB", "group": "fengyun-1c-debris", "lat": 63.551940988518766, "lon": -118.07969273617519, "alt_km": 905.393972546206, "timestamp": "2025-12-02T13:52:17.534351+00:00", "meta": {"OBJECT_NAME": "FENGYUN 1C DEB", "OBJECT_ID": "1999-025HD", "EPOCH": "2025-12-02T03:15:25.774272", "MEAN_MOTION": 14.1153741, "ECCENTRICITY": 0.00831719, "INCLINATION": 99.1129, "RA_OF_ASC_NODE": 42.6476, "ARG_OF_PERICENTER": 279.2738, "MEAN_ANOMALY": 109.7431, "EPHEMERIS_TYPE": 0, "CLASSIFICATION_TYPE": "U", "NORAD_CAT_ID": 29907, "ELEMENT_SET_NO": 999, "REV_AT_EPOCH": 96449, "BSTAR": 0.001854297, "MEAN_MOTION_DOT": 3.431e-05, "MEAN_MOTION_DDOT": 0}, "tle": {"line1": "1 29907U 99025HD  25336.13571498  .00003431  00000+0  18543-2 0  9992", "line2": "2 29907  99.1129  42.6476 0083171 279.2738 109.7431 14.11537410964491"}}, "geometry": {"type": "Point", "coordinates": [-118.07969273617519, 63.551940988518766]}}, {"type": "Feature", "properties": {"norad_id": 29909, "name": "FENGYUN 1C DEB", "group": "fengyun-1c-debris", "lat": -76.95395656198029, "lon": -140.93651192125049, "alt_km": 740.3545105664771, "timestamp": "2025-12-02T13:52:17.534361+00:00", "meta": {"OBJECT_NAME": "FENGYUN 1C DEB", "OBJECT_ID": "1999-025HF", "EPOCH": "2025-12-02T06:19:26.633280", "MEAN_MOTION": 14.54816606, "ECCENTRICITY": 0.0038712, "INCLINATION": 98.6352, "RA_OF_ASC_NODE": 79.721, "ARG_OF_PERICENTER": 48.5849, "MEAN_ANOMALY": 5.7488, "EPHEMERIS_TYPE": 0, "CLASSIFICATION_TYPE": "U", "NORAD_CAT_ID": 29909, "ELEMENT_SET_NO": 999, "REV_AT_EPOCH": 98253, "BSTAR": 0.0024962888, "MEAN_MOTION_DOT": 0.00010781, "MEAN_MOTION_DDOT": 0}, "tle": {"line1": "1 29909U 99025HF  25336.26350270  .00010781  00000+0  24963-2 0  9990", "line2": "2 29909  98.6352  79.7210 0038712  48.5849   5.7488 14.54816606982539"}}, "geometry": {"type": "Point", "coordinates": [-140.93651192125049, -76.95395656198029]}}, {"type": "Feature", "properties": {"norad_id": 29911, "name": "FENGYUN 1C DEB", "group": "fengyun-1c-debris", "lat": -71.08892175785125, "lon": 46.46737998571895, "alt_km": 842.6198779536935, "timestamp": "2025-12-02T13:52:17.534371+00:00", "meta": {"OBJECT_NAME": "FENGYUN 1C DEB", "OBJECT_ID": "1999-025HH", "EPOCH": "2025-12-01T15:06:52.782912", "MEAN_MOTION": 14.18800356, "ECCENTRICITY": 0.00271531, "INCLINATION": 98.7168, "RA_OF_ASC_NODE": 18.9316, "ARG_OF_PERICENTER": 181.7494, "MEAN_ANOMALY": 304.4376, "EPHEMERIS_TYPE": 0, "CLASSIFICATION_TYPE": "U", "NORAD_CAT_ID": 29911, "ELEMENT_SET_NO": 999, "REV_AT_EPOCH": 97273, "BSTAR": 0.00075042606, "MEAN_MOTION_DOT": 1.522e-05, "MEAN_MOTION_DDOT": 0}, "tle": {"line1": "1 29911U 99025HH  25335.62977758  .00001522  00000+0  75043-3 0  9997", "line2": "2 29911  98.7168  18.9316 0027153 181.7494 304.4376 14.18800356972734"}}, "geometry": {"type": "Point", "coordinates": [46.46737998571895, -71.08892175785125]}}, {"type": "Feature", "properties": {"norad_id": 29912, "name": "FENGYUN 1C DEB", "group": "fengyun-1c-debris", "lat": 80.4736163810338, "lon": 7.347364037541743, "alt_km": 770.8592270161071, "timestamp": "2025-12-02T13:52:17.534381+00:00", "meta": {"OBJECT_NAME": "FENGYUN 1C DEB", "OBJECT_ID": "1999-025HJ", "EPOCH": "2025-12-02T05:26:51.115200", "MEAN_MOTION": 14.4271984, "ECCENTRICITY": 0.00424536, "INCLINATION": 98.7383, "RA_OF_ASC_NODE": 73.4094, "ARG_OF_PERICENTER": 249.3711, "MEAN_ANOMALY": 175.0122, "EPHEMERIS_TYPE": 0, "CLASSIFICATION_TYPE": "U", "NORAD_CAT_ID": 29912, "ELEMENT_SET_NO": 999, "REV_AT_EPOCH": 97887, "BSTAR": 0.0027923467, "MEAN_MOTION_DOT": 9.362e-05, "MEAN_MOTION_DDOT": 0}, "tle": {"line1": "1 29912U 99025HJ  25336.22698050  .00009362  00000+0  27923-2 0  9993", "line2": "2 29912  98.7383  73.4094 0042453 249.3711 175.0122 14.42719840978872"}}, "geometry": {"type": "Point", "coordinates": [7.347364037541743, 80.4736163810338]}}, {"type": "Feature", "properties": {"norad_id": 29913, "name": "FENGYUN 1C DEB", "group": "fengyun-1c-debris", "lat": 52.29758985086003, "lon": -35.83468137643339, "alt_km": 880.6360087314779, "timestamp": "2025-12-02T13:52:17.534391+00:00", "meta": {"OBJECT_NAME": "FENGYUN 1C DEB", "OBJECT_ID": "1999-025HK", "EPOCH": "2025-12-01T22:32:25.158048", "MEAN_MOTION": 14.07361867, "ECCENTRICITY": 0.00620846, "INCLINATION": 98.7874, "RA_OF_ASC_NODE": 335.0879, "ARG_OF_PERICENTER": 302.3178, "MEAN_ANOMALY": 115.5889, "EPHEMERIS_TYPE": 0, "CLASSIFICATION_TYPE": "U", "NORAD_CAT_ID": 29913, "ELEMENT_SET_NO": 999, "REV_AT_EPOCH": 96813, "BSTAR": 0.00048205836, "MEAN_MOTION_DOT": 7.81e-06, "MEAN_MOTION_DDOT": 0}, "tle": {"line1": "1 29913U 99025HK  25335.93918007  .00000781  00000+0  48206-3 0  9992", "line2": "2 29913  98.7874 335.0879 0062084 302.3178 115.5889 14.07361867968135"}}, "geometry": {"type": "Point", "coordinates": [-35.83468137643339, 52.29758985086003]}}, {"type": "Feature", "properties": {"norad_id": 29914, "name": "FENGYUN 1C DEB", "group": "fengyun-1c-debris", "lat": -12.224823989495995, "lon": 7.374873168734134, "alt_km": 911.2419695434082, "timestamp": "2025-12-02T13:52:17.534401+00:00", "meta": {"OBJECT_NAME": "FENGYUN 1C DEB", "OBJECT_ID": "1999-025HL", "EPOCH": "2025-12-02T00:30:55.685376", "MEAN_MOTION": 14.03123164, "ECCENTRICITY": 0.00362152, "INCLINATION": 98.8456, "RA_OF_ASC_NODE": 4.9006, "ARG_OF_PERICENTER": 144.7504, "MEAN_ANOMALY": 273.6846, "EPHEMERIS_TYPE": 0, "CLASSIFICATION_TYPE": "U", "NORAD_CAT_ID": 29914, "ELEMENT_SET_NO": 999, "REV_AT_EPOCH": 96636, "BSTAR": 0.00038327242, "MEAN_MOTION_DOT": 5.57e-06, "MEAN_MOTION_DDOT": 0}, "tle": {"line1": "1 29914U 99025HL  25336.02147784  .00000557  00000+0  38327-3 0  9994", "line2": "2 29914  98.8456   4.9006 0036215 144.7504 273.6846 14.03123164966369"}}, "geometry": {"type": "Point", "coordinates": [7.374873168734134, -12.224823989495995]}}, {"type": "Feature", "properties": {"norad_id": 29916, "name": "FENGYUN 1C DEB", "group": "fengyun-1c-debris", "lat": -51.240309942882746, "lon": 164.83835181377975, "alt_km": 927.5730076610362, "timestamp": "2025-12-02T13:52:17.534412+00:00", "meta": {"OBJECT_NAME": "FENGYUN 1C DEB", "OBJECT_ID": "1999-025HN", "EPOCH": "2025-12-02T07:29:14.455968", "MEAN_MOTION": 13.5696438, "ECCENTRICITY": 0.02710113, "INCLINATION": 99.1956, "RA_OF_ASC_NODE": 356.2292, "ARG_OF_PERICENTER": 285.2372, "MEAN_ANOMALY": 90.5113, "EPHEMERIS_TYPE": 0, "CLASSIFICATION_TYPE": "U", "NORAD_CAT_ID": 29916, "ELEMENT_SET_NO": 999, "REV_AT_EPOCH": 93311, "BSTAR": 0.00087523491, "MEAN_MOTION_DOT": 7.46e-06, "MEAN_MOTION_DDOT": 0}, "tle": {"line1": "1 29916U 99025HN  25336.31197287  .00000746  00000+0  87523-3 0  9993", "line2": "2 29916  99.1956 356.2292 0271011 285.2372  90.5113 13.56964380933119"}}, "geometry": {"type": "Point", "coordinates": [164.83835181377975, -51.240309942882746]}}, {"type": "Feature", "properties": {"norad_id": 29917, "name": "FENGYUN 1C DEB", "group": "fengyun-1c-debris", "lat": -16.817185968210953, "lon": 16.27846736120843, "alt_km": 886.1940017854531, "timestamp": "2025-12-02T13:52:17.534422+00:00", "meta": {"OBJECT_NAME": "FENGYUN 1C DEB", "OBJECT_ID": "1999-025HP", "EPOCH": "2025-12-01T21:16:47.576064", "MEAN_MOTION": 13.70375221, "ECCENTRICITY": 0.02224725, "INCLINATION": 98.8765, "RA_OF_ASC_NODE": 198.347, "ARG_OF_PERICENTER": 153.1927, "MEAN_ANOMALY": 233.2266, "EPHEMERIS_TYPE": 0, "CLASSIFICATION_TYPE": "U", "NORAD_CAT_ID": 29917, "ELEMENT_SET_NO": 999, "REV_AT_EPOCH": 93982, "BSTAR": 0.001075176, "MEAN_MOTION_DOT": 1.093e-05, "MEAN_MOTION_DDOT": 0}, "tle": {"line1": "1 29917U 99025HP  25335.88666176  .00001093  00000+0  10752-2 0  9998", "line2": "2 29917  98.8765 198.3470 0222472 153.1927 233.2266 13.70375221939828"}}, "geometry": {"type": "Point", "coordinates": [16.27846736120843, -16.817185968210953]}}, {"type": "Feature", "properties": {"norad_id": 29918, "name": "FENGYUN 1C DEB", "group": "fengyun-1c-debris", "lat": -55.28627194227664, "lon": -134.22395528673124, "alt_km": 790.6876473103403, "timestamp": "2025-12-02T13:52:17.534432+00:00", "meta": {"OBJECT_NAME": "FENGYUN 1C DEB", "OBJECT_ID": "1999-025HQ", "EPOCH": "2025-12-02T04:38:53.152800", "MEAN_MOTION": 14.33457588, "ECCENTRICITY": 0.00127136, "INCLINATION": 98.8561, "RA_OF_ASC_NODE": 58.3888, "ARG_OF_PERICENTER": 350.0177, "MEAN_ANOMALY": 64.2569, "EPHEMERIS_TYPE": 0, "CLASSIFICATION_TYPE": "U", "NORAD_CAT_ID": 29918, "ELEMENT_SET_NO": 999, "REV_AT_EPOCH": 97643, "BSTAR": 0.001616675, "MEAN_MOTION_DOT": 4.425e-05, "MEAN_MOTION_DDOT": 0}, "tle": {"line1": "1 29918U 99025HQ  25336.19367075  .00004425  00000+0  16167-2 0  9998", "line2": "2 29918  98.8561  58.3888 0012713 350.0177  64.2569 14.33457588976434"}}, "geometry": {"type": "Point", "coordinates": [-134.22395528673124, -55.28627194227664]}}]}